NORAD_CAT_ID,OBJECT_NAME,OBJECT_TYPE,EPOCH,MEAN_MOTION,ECCENTRICITY,INCLINATION,RA_OF_ASC_NODE,ARG_OF_PERICENTER,MEAN_ANOMALY,BSTAR,MEAN_MOTION_DOT,MEAN_MOTION_DDOT,TLE_LINE0,TLE_LINE1,TLE_LINE2,SEMIMAJOR_AXIS,PERIOD,APOGEE,PERIGEE,DECAYED
49173.0,STARLINK-3045,PAYLOAD,2023-09-25 16:52:29,14.98343889,0.0003128,70.0026,13.5512,269.2941,90.786,0.00032388,3.775e-05,0.0,0 STARLINK-3045,1 49173U 21082AV  23268.70312454  .00003775  00000-0  32388-3 0  9993,2 49173  70.0026  13.5512 0003128 269.2941  90.7860 14.98343889112264,6950.15,96.106,574.189,569.841,0.0
49173.0,STARLINK-3045,PAYLOAD,2023-09-26 10:29:59,14.98322384,0.0003423,70.0023,11.7004,280.3781,79.6992,-3.8306e-05,-5.5e-06,0.0,0 STARLINK-3045,1 49173U 21082AV  23269.43749721 -.00000550  00000-0 -38306-4 0  9992,2 49173  70.0023  11.7004 0003423 280.3781  79.6992 14.98322384112372,6950.216,96.107,574.461,569.702,0.0
49173.0,STARLINK-3045,PAYLOAD,2023-09-26 13:42:15,14.98322909,0.000298,70.0036,11.3669,259.3983,100.6841,-5.0259e-05,-6.92e-06,0.0,0 STARLINK-3045,1 49173U 21082AV  23269.57101581 -.00000692  00000-0 -50259-4 0  9991,2 49173  70.0036  11.3669 0002980 259.3983 100.6841 14.98322909112399,6950.215,96.107,574.151,570.009,0.0
49173.0,STARLINK-3045,PAYLOAD,2023-09-26 16:54:31,14.98325683,0.000317,70.0026,11.0275,276.1183,83.9615,2.5641e-05,2.13e-06,0.0,0 STARLINK-3045,1 49173U 21082AV  23269.70453617  .00000213  00000-0  25641-4 0  9990,2 49173  70.0026  11.0275 0003170 276.1183  83.9615 14.98325683112416,6950.206,96.107,574.274,569.868,0.0
49173.0,STARLINK-3045,PAYLOAD,2023-09-27 08:55:52,14.98330515,0.0003265,70.0028,9.3436,277.2318,82.847,0.0001171,1.305e-05,0.0,0 STARLINK-3045,1 49173U 21082AV  23270.37213522  .00001305  00000-0  11710-3 0  9998,2 49173  70.0028   9.3436 0003265 277.2318  82.8470 14.98330515112512,6950.191,96.107,574.326,569.787,0.0
49173.0,STARLINK-3045,PAYLOAD,2023-09-27 12:08:08,14.98331849,0.0003272,70.0028,9.0071,277.6797,82.3991,0.00013071,1.467e-05,0.0,0 STARLINK-3045,1 49173U 21082AV  23270.50565490  .00001467  00000-0  13071-3 0  9998,2 49173  70.0028   9.0071 0003272 277.6797  82.3991 14.98331849112533,6950.187,96.107,574.326,569.778,0.0
49173.0,STARLINK-3045,PAYLOAD,2023-09-27 16:56:32,14.98340891,0.0003193,70.0025,8.5017,274.8721,85.2074,0.00026175,3.032e-05,0.0,0 STARLINK-3045,1 49173U 21082AV  23270.70592985  .00003032  00000-0  26175-3 0  9998,2 49173  70.0025   8.5017 0003193 274.8721  85.2074 14.98340891112566,6950.159,96.106,574.243,569.805,0.0
49173.0,STARLINK-3045,PAYLOAD,2023-09-28 12:10:09,14.98329272,0.0002966,70.0032,6.4835,272.9412,87.1408,0.00019282,2.208e-05,0.0,0 STARLINK-3045,1 49173U 21082AV  23271.50705655  .00002208  00000-0  19282-3 0  9992,2 49173  70.0032   6.4835 0002966 272.9412  87.1408 14.98329272112687,6950.195,96.107,574.122,569.999,0.0
49173.0,STARLINK-3045,PAYLOAD,2023-09-28 13:46:17,14.98329673,0.0002943,70.0032,6.3149,271.3951,88.6871,0.00023354,2.695e-05,0.0,0 STARLINK-3045,1 49173U 21082AV  23271.57381650  .00002695  00000-0  23354-3 0  9999,2 49173  70.0032   6.3149 0002943 271.3951  88.6871 14.98329673112696,6950.194,96.107,574.104,570.013,0.0
49173.0,STARLINK-3045,PAYLOAD,2023-09-28 16:58:33,14.98331862,0.0002925,70.0033,5.9787,272.05,88.0324,0.0002065,2.372e-05,0.0,0 STARLINK-3045,1 49173U 21082AV  23271.70733456  .00002372  00000-0  20650-3 0  9997,2 49173  70.0033   5.9787 0002925 272.0500  88.0324 14.98331862112711,6950.187,96.107,574.085,570.019,0.0
49173.0,STARLINK-3045,PAYLOAD,2023-09-29 12:12:10,14.98339232,0.0003228,70.0001,3.9564,272.7099,87.369,0.00010943,1.213e-05,0.0,0 STARLINK-3045,1 49173U 21082AV  23272.50844961  .00001213  00000-0  10943-3 0  9997,2 49173  70.0001   3.9564 0003228 272.7099  87.3690 14.98339232112834,6950.164,96.106,574.273,569.786,0.0
49173.0,STARLINK-3045,PAYLOAD,2023-09-29 13:48:18,14.98335039,0.0003125,70.0007,3.7886,273.6039,86.4763,9.7567e-05,1.071e-05,0.0,0 STARLINK-3045,1 49173U 21082AV  23272.57521276  .00001071  00000-0  97567-4 0  9995,2 49173  70.0007   3.7886 0003125 273.6039  86.4763 14.98335039112848,6950.177,96.107,574.214,569.87,0.0
49173.0,STARLINK-3045,PAYLOAD,2023-09-29 15:24:26,14.98336446,0.0003115,70.0009,3.6206,272.3458,87.7344,0.00011171,1.24e-05,0.0,0 STARLINK-3045,1 49173U 21082AV  23272.64197130  .00001240  00000-0  11171-3 0  9995,2 49173  70.0009   3.6206 0003115 272.3458  87.7344 14.98336446112858,6950.173,96.107,574.203,569.873,0.0
49173.0,STARLINK-3045,PAYLOAD,2023-09-30 10:38:02,14.98334869,0.0002877,70.001,1.6017,264.004,96.0791,0.00013959,1.573e-05,0.0,0 STARLINK-3045,1 49173U 21082AV  23273.44308949  .00001573  00000-0  13959-3 0  9991,2 49173  70.0010   1.6017 0002877 264.0040  96.0791 14.98334869112976,6950.178,96.107,574.042,570.043,0.0
49173.0,STARLINK-3045,PAYLOAD,2023-10-01 12:16:11,14.98338075,0.0003006,70.0003,358.9075,262.4711,97.6107,0.00018735,2.144e-05,0.0,0 STARLINK-3045,1 49173U 21082AV  23274.51124286  .00002144  00000-0  18735-3 0  9992,2 49173  70.0003 358.9075 0003006 262.4711  97.6107 14.98338075113132,6950.168,96.106,574.122,569.944,0.0
49173.0,STARLINK-3045,PAYLOAD,2023-10-01 15:28:27,14.98344954,0.0003004,70.0018,358.5712,266.8108,93.2708,0.00029279,3.404e-05,0.0,0 STARLINK-3045,1 49173U 21082AV  23274.64475970  .00003404  00000-0  29279-3 0  9990,2 49173  70.0018 358.5712 0003004 266.8108  93.2708 14.98344954113152,6950.147,96.106,574.099,569.924,0.0
49173.0,STARLINK-3045,PAYLOAD,2023-10-02 10:42:05,14.9832587,0.000294,70.0,356.5491,267.9256,92.1567,-3.8413e-05,-5.51e-06,0.0,0 STARLINK-3045,1 49173U 21082AV  23275.44589251 -.00000551  00000-0 -38413-4 0  9990,2 49173  70.0000 356.5491 0002940 267.9256  92.1567 14.98325870113279,6950.206,96.107,574.114,570.027,0.0
49173.0,STARLINK-3045,PAYLOAD,2023-10-02 15:30:29,14.98327727,0.0003197,70.0,356.0471,271.197,88.8823,-2.363e-05,-3.75e-06,0.0,0 STARLINK-3045,1 49173U 21082AV  23275.64617109 -.00000375  00000-0 -23630-4 0  9995,2 49173  70.0000 356.0471 0003197 271.1970  88.8823 14.98327727113301,6950.2,96.107,574.287,569.843,0.0
49173.0,STARLINK-3045,PAYLOAD,2023-10-03 12:20:13,14.98341509,0.0003182,69.9998,353.8574,272.5014,87.5781,6.1073e-05,6.36e-06,0.0,0 STARLINK-3045,1 49173U 21082AV  23276.51404171  .00000636  00000-0  61073-4 0  9996,2 49173  69.9998 353.8574 0003182 272.5014  87.5781 14.98341509113438,6950.157,96.106,574.234,569.811,0.0
49173.0,STARLINK-3045,PAYLOAD,2023-10-03 13:56:21,14.98339147,0.000317,70.0009,353.6892,274.0594,86.0203,0.00011862,1.323e-05,0.0,0 STARLINK-3045,1 49173U 21082AV  23276.58080260  .00001323  00000-0  11862-3 0  9996,2 49173  70.0009 353.6892 0003170 274.0594  86.0203 14.98339147113441,6950.165,96.106,574.233,569.826,0.0
49173.0,STARLINK-3045,PAYLOAD,2023-10-03 21:57:01,14.98342657,0.0003108,70.001,352.8484,272.5946,87.4857,0.00019458,2.23e-05,0.0,0 STARLINK-3045,1 49173U 21082AV  23276.91460018  .00002230  00000-0  19458-3 0  9993,2 49173  70.0010 352.8484 0003108 272.5946  87.4857 14.98342657113491,6950.154,96.106,574.179,569.859,0.0
49173.0,STARLINK-3045,PAYLOAD,2023-10-04 10:46:06,14.98327238,0.0003477,70.0005,351.5013,272.5842,87.4919,0.00039591,4.634e-05,0.0,0 STARLINK-3045,1 49173U 21082AV  23277.44868881  .00004634  00000-0  39591-3 0  9992,2 49173  70.0005 351.5013 0003477 272.5842  87.4919 14.98327238113579,6950.201,96.107,574.483,569.65,0.0
49173.0,STARLINK-3045,PAYLOAD,2023-10-04 13:58:22,14.98337191,0.0002907,70.0013,351.1661,267.0338,93.0489,0.00031202,3.633e-05,0.0,0 STARLINK-3045,1 49173U 21082AV  23277.58220326  .00003633  00000-0  31202-3 0  9992,2 49173  70.0013 351.1661 0002907 267.0338  93.0489 14.98337191113595,6950.171,96.107,574.056,570.015,0.0
49173.0,STARLINK-3045,PAYLOAD,2023-10-04 15:34:30,14.98340047,0.0002923,70.0014,350.9979,267.1431,92.9394,0.00036667,4.286e-05,0.0,0 STARLINK-3045,1 49173U 21082AV  23277.64896204  .00004286  00000-0  36667-3 0  9998,2 49173  70.0014 350.9979 0002923 267.1431  92.9394 14.98340047113607,6950.162,96.106,574.058,569.995,0.0
49173.0,STARLINK-3045,PAYLOAD,2023-10-04 21:59:02,14.98336803,0.0003116,70.003,350.3245,266.5947,93.4856,8.1429e-05,8.79e-06,0.0,0 STARLINK-3045,1 49173U 21082AV  23277.91600148  .00000879  00000-0  81429-4 0  9999,2 49173  70.0030 350.3245 0003116 266.5947  93.4856 14.98336803113643,6950.172,96.107,574.203,569.871,0.0
49173.0,STARLINK-3045,PAYLOAD,2023-10-05 10:48:07,14.9833259,0.0002972,70.0018,348.9776,266.1108,93.9711,5.0796e-05,5.13e-06,0.0,0 STARLINK-3045,1 49173U 21082AV  23278.45008385  .00000513  00000-0  50796-4 0  9992,2 49173  70.0018 348.9776 0002972 266.1108  93.9711 14.98332590113728,6950.185,96.107,574.115,569.984,0.0
49173.0,STARLINK-3045,PAYLOAD,2023-10-05 14:00:23,14.98333779,0.0002916,70.0016,348.6407,264.6184,95.4642,5.4212e-05,5.54e-06,0.0,0 STARLINK-3045,1 49173U 21082AV  23278.58360291  .00000554  00000-0  54212-4 0  9995,2 49173  70.0016 348.6407 0002916 264.6184  95.4642 14.98333779113741,6950.181,96.107,574.073,570.02,0.0
49173.0,STARLINK-3045,PAYLOAD,2023-10-06 10:50:08,14.98328997,0.0002939,69.9998,346.4508,267.8136,92.2687,-1.2211e-06,-1.08e-06,0.0,0 STARLINK-3045,1 49173U 21082AV  23279.45149051 -.00000108  00000-0 -12211-5 0  9992,2 49173  69.9998 346.4508 0002939 267.8136  92.2687 14.98328997113876,6950.196,96.107,574.104,570.018,0.0
49173.0,STARLINK-3045,PAYLOAD,2023-10-06 14:02:24,14.9833418,0.0003063,69.9996,346.1138,268.297,91.7838,-1.0126e-06,-1.05e-06,0.0,0 STARLINK-3045,1 49173U 21082AV  23279.58500687 -.00000105  00000-0 -10126-5 0  9992,2 49173  69.9996 346.1138 0003063 268.2970  91.7838 14.98334180113895,6950.18,96.107,574.174,569.916,0.0
49173.0,STARLINK-3045,PAYLOAD,2023-10-06 22:03:05,14.98333804,0.0003,69.9997,345.272,273.9921,86.0895,-5.4228e-05,-7.4e-06,0.0,0 STARLINK-3045,1 49173U 21082AV  23279.91880825 -.00000740  00000-0 -54228-4 0  9999,2 49173  69.9997 345.2720 0003000 273.9921  86.0895 14.98333804113941,6950.181,96.107,574.131,569.961,0.0
